2022-090A               
1 53346U 22090A   22338.47716529  .00003476  00000+0  15909-3 0  9999
2 53346  97.4592  50.2450 0006528 162.5516 324.3847 15.21165430 18606
2022-090B               
1 53347U 22090B   22338.52309572  .00012612  00000+0  48427-3 0  9995
2 53347  97.4590  50.9416 0011842 201.8302 283.3001 15.26530539 18640
2022-090C               
1 53348U 22090C   22338.48619058  .00017765  00000+0  65894-3 0  9995
2 53348  97.4588  50.9828 0011494 204.7021 283.7733 15.27602318 18640
SBIRS GEO-6 (USA 336)   
1 53355U 22092A   22337.65222375  .00000116  00000+0  00000+0 0  9991
2 53355   6.3545 311.9348 0003453 317.6950 252.6483  1.00272777  1285
PRC TEST SPACECRAFT 2   
1 53357U 22093A   22338.54442126 -.00000026  00000+0  22531-4 0  9990
2 53357  49.9930 289.4377 0007861  62.6725 297.5015 14.88563718 18503
2022-095A               
1 53367U 22095A   22338.46516985  .00009849  00000+0  34521-3 0  9991
2 53367  97.3984  51.1804 0075088  25.0216  98.6562 15.26956588 17884
2022-095B               
1 53368U 22095B   22338.38441833  .00009889  00000+0  34403-3 0  9995
2 53368  97.3974  51.1305 0075213  24.4619 106.1542 15.27183971 17860
2022-095C               
1 53369U 22095C   22338.40674872  .00006008  00000+0  21574-3 0  9995
2 53369  97.3973  51.0972 0076645  24.2010 103.8800 15.26250314 17868
KHAYYAM                 
1 53370U 22096A   22338.41603551  .00004194  00000+0  17351-3 0  9997
2 53370  97.4280 238.9505 0001803  82.9530  39.1035 15.24503187 17860
2022-096B               
1 53371U 22096B   22338.37097794  .00007609  00000+0  29697-3 0  9999
2 53371  97.4275 239.0040 0002840  98.0936   9.2708 15.26193990 17865
2022-096C               
1 53372U 22096C   22338.37469332  .00006871  00000+0  26955-3 0  9995
2 53372  97.4279 238.9979 0002869  97.7878  10.0652 15.26058227 17840
RS29S (SXC3-2110 CYCLO*)
1 53373U 22096D   22338.39943127  .00012237  00000+0  46053-3 0  9991
2 53373  97.4279 239.1173 0003143  95.3924  15.8625 15.27263434 17855
RS32S (SXC3-212 MONITO*)
1 53374U 22096E   22338.39142826  .00011061  00000+0  41591-3 0  9995
2 53374  97.4268 239.1227 0003366  90.6296  20.0641 15.27316088 17851
RS34S (SXC3-218 KUZBAS*)
1 53375U 22096F   22338.40745925  .00010037  00000+0  38226-3 0  9990
2 53375  97.4278 239.1137 0003358  94.9406  35.4426 15.26920375 17854
RS23S (SXC3-21 UTMN)    
1 53376U 22096G   22338.40085475  .00010387  00000+0  39460-3 0  9997
2 53376  97.4274 239.1148 0003366  90.2395  21.0095 15.26993784 17855
RS28S (SXC3-214 MIET-A*)
1 53377U 22096H   22338.46557440  .00009619  00000+0  36634-3 0  9996
2 53377  97.4279 239.1823 0003472  90.9049  19.1490 15.26931853 17869
RS26S (KAI-1)           
1 53378U 22096J   22338.40873240  .00008701  00000+0  33366-3 0  9990
2 53378  97.4281 239.1115 0003463  85.0642  44.4064 15.26733346 17855
2022-096K               
1 53379U 22096K   22338.50826554  .00007726  00000+0  29555-3 0  9999
2 53379  97.4276 239.2521 0005447  51.7972   1.1712 15.26847204 17873
2022-096L               
1 53380U 22096L   22338.52010477  .00007850  00000+0  29996-3 0  9999
2 53380  97.4274 239.2659 0005519  50.5767  74.7869 15.26876700 17876
RS19S (SXC3-219 ISOI)   
1 53381U 22096M   22338.43081726  .00009266  00000+0  34753-3 0  9995
2 53381  97.4270 239.2275 0005860  48.5321  67.2927 15.27442537 17868
RS8S (SXC3-2111 RESHUC*)
1 53382U 22096N   22338.51373032  .00009142  00000+0  34521-3 0  9995
2 53382  97.4271 239.2970 0005848  50.5657 124.2355 15.27219657 17878
RS21S (CUBESX-HSE-2)    
1 53383U 22096P   22338.49146076  .00010350  00000+0  38713-3 0  9999
2 53383  97.4276 239.2986 0006187  48.0736  58.3133 15.27497492 17874
RS30S (SXC3-217 SIREN)  
1 53384U 22096Q   22338.50718013  .00009338  00000+0  35132-3 0  9994
2 53384  97.4275 239.3048 0006045  47.7165 127.6939 15.27336758 17870
RS20S (GEOSCAN-EDELVEIS)
1 53385U 22096R   22338.50474537  .00013011  00000+0  47499-3 0  9997
2 53385  97.4265 239.3803 0006458  46.8877 305.8094 15.28237489 17905
RS33S (SXC3-215 VIZARD) 
1 53386U 22096S   22338.42577625  .00015034  00000+0  53515-3 0  9994
2 53386  97.4271 239.3833 0007379  45.9460  67.0032 15.29028205 17899
STARLINK-4522           
1 53388U 22097A   22338.52820258  .00000346  00000+0  39844-4 0  9991
2 53388  53.2186  71.4680 0002542  39.3803 320.7374 15.08840094 19026
STARLINK-4523           
1 53389U 22097B   22338.52084006  .00001853  00000+0  13448-3 0  9990
2 53389  53.2191  71.4959 0002212  37.4787 322.6359 15.08849723 18847
STARLINK-4517           
1 53390U 22097C   22338.52452513  .00001982  00000+0  14258-3 0  9997
2 53390  53.2191  71.4837 0002323  37.1264 322.9888 15.08845436 18997
STARLINK-4521           
1 53391U 22097D   22338.45092836 -.00000357  00000+0 -43106-5 0  9991
2 53391  53.2189  71.8147 0002442  38.9120 321.2047 15.08838367 18832
STARLINK-4535           
1 53392U 22097E   22338.44356294 -.00000873  00000+0 -36732-4 0  9991
2 53392  53.2196  71.8452 0002504  38.6595 321.4576 15.08839638 18833
STARLINK-4530           
1 53393U 22097F   22338.44723587 -.00001391  00000+0 -69225-4 0  9994
2 53393  53.2205  71.8260 0002710  33.7087 326.4077 15.08860447 18836
STARLINK-4544           
1 53394U 22097G   22338.54109813  .00000981  00000+0  79737-4 0  9997
2 53394  53.2189  61.1653 0002060  42.2588 317.8562 15.08833622 18990
STARLINK-4534           
1 53395U 22097H   22338.43988441  .00000735  00000+0  64301-4 0  9996
2 53395  53.2197  71.8614 0002186  31.0695 329.0426 15.08836798 18675
STARLINK-4524           
1 53396U 22097J   22338.55764602  .00000999  00000+0  80867-4 0  9998
2 53396  53.2202  71.3222 0002468  36.4483 323.6677 15.08832496 18691
STARLINK-4515           
1 53397U 22097K   22338.56868879  .00000379  00000+0  41908-4 0  9996
2 53397  53.2200  71.2843 0002109  36.4478 323.6658 15.08843433 18696
STARLINK-4512           
1 53398U 22097L   22338.55029105  .00001212  00000+0  94256-4 0  9998
2 53398  53.2187  71.3442 0001990  38.6311 321.4823 15.08832373 18695
STARLINK-4528           
1 53399U 22097M   22338.56132611  .00000834  00000+0  70472-4 0  9990
2 53399  53.2191  71.3090 0001749  46.7873 313.3266 15.08836819 18695
STARLINK-4520           
1 53400U 22097N   22338.53924376 -.00000009  00000+0  17574-4 0  9996
2 53400  53.2202  71.3915 0002239  45.7814 314.3362 15.08840580 18694
STARLINK-4525           
1 53401U 22097P   22338.55395447  .00000822  00000+0  69761-4 0  9997
2 53401  53.2201  71.3393 0002094  38.2198 321.8942 15.08847429 18691
STARLINK-4499           
1 53402U 22097Q   22338.53557097  .00007048  00000+0  46042-3 0  9990
2 53402  53.2174  71.4060 0002168  45.6002 314.5167 15.08842513 18698
STARLINK-4507           
1 53403U 22097R   22338.54755841 -.00000377  00000+0 -55699-5 0  9999
2 53403  53.2200  71.3544 0001959  46.3539 313.7616 15.08837730 18690
STARLINK-4509           
1 53404U 22097S   22338.52544934 -.00001483  00000+0 -75097-4 0  9999
2 53404  53.2166  61.4626 0002148  35.2555 324.8579 15.08828155 18826
STARLINK-4510           
1 53405U 22097T   22338.53188060  .00000787  00000+0  67570-4 0  9996
2 53405  53.2199  71.4365 0001879  53.2018 306.9146 15.08838130 18698
STARLINK-4533           
1 53406U 22097U   22338.50704695 -.00001362  00000+0 -67502-4 0  9999
2 53406  53.2172  61.5403 0002020  46.6094 313.5066 15.08834713 18825
STARLINK-4537           
1 53407U 22097V   22338.58334491  .00029824  00000+0  18855-2 0  9997
2 53407  53.2180  51.4351 0001799  59.6647 309.9770 15.08811554  1309
STARLINK-4491           
1 53408U 22097W   22338.45184974  .00000227  00000+0  32363-4 0  9991
2 53408  53.2179  61.7904 0001811  53.3090 306.8068 15.08831125 18810
STARLINK-4490           
1 53409U 22097X   22338.58334491 -.00001797  00000+0 -94839-4 0  9998
2 53409  53.2177  51.3949 0001515  68.4228 321.2343 15.08848690  1302
STARLINK-4492           
1 53410U 22097Y   22338.51439994  .00001162  00000+0  91058-4 0  9991
2 53410  53.2180  61.5092 0001641  38.9014 321.2096 15.08842019 18824
STARLINK-4497           
1 53411U 22097Z   22338.52176392  .00000745  00000+0  64951-4 0  9991
2 53411  53.2170  61.4740 0002414  33.2947 326.8197 15.08839696 18825
STARLINK-4496           
1 53412U 22097AA  22338.56960488  .00002578  00000+0  18001-3 0  9993
2 53412  53.2175  61.2616 0002115  38.8276 321.2868 15.08838174 18830
STARLINK-4500           
1 53413U 22097AB  22338.51072153  .00000692  00000+0  61588-4 0  9996
2 53413  53.2190  61.5279 0001938  32.8563 327.2549 15.08841033 18820
STARLINK-4304           
1 53414U 22097AC  22338.49972699 -.00004327  00000+0 -25419-3 0  9991
2 53414  53.2193  61.5788 0002116  55.7508 304.3684 15.08795612 18817
STARLINK-4479           
1 53415U 22097AD  22338.49600654  .00001322  00000+0  10112-3 0  9995
2 53415  53.2198  61.5956 0001751  54.7158 305.3997 15.08842056 18794
STARLINK-4480           
1 53416U 22097AE  22338.48591876  .00002438  00000+0  17125-3 0  9990
2 53416  53.2203  61.6340 0002184  35.9399 324.1740 15.08842191 18794
STARLINK-4484           
1 53417U 22097AF  22338.49233144 -.00000274  00000+0  90491-6 0  9990
2 53417  53.2193  61.6033 0002132  37.8392 322.2750 15.08835467 18797
STARLINK-4481           
1 53418U 22097AG  22338.58334491  .00017374  00000+0  11073-2 0  9991
2 53418  53.2178  50.7713 0001560  45.8024 304.2749 15.08831493  1302
STARLINK-4476           
1 53419U 22097AH  22338.48864438  .00000098  00000+0  24257-4 0  9995
2 53419  53.2186  61.6209 0002149  28.3057 331.8052 15.08835278 18798
STARLINK-4552           
1 53420U 22097AJ  22338.47760315  .00000695  00000+0  61779-4 0  9998
2 53420  53.2205  61.6746 0001929  42.6953 317.4189 15.08839139 18798
STARLINK-4545           
1 53421U 22097AK  22338.48496726 -.00000285  00000+0  18225-6 0  9998
2 53421  53.2195  61.6382 0002031  38.5268 321.5869 15.08838053 18796
